start=new Date('2022-07-13T00:00:00.000Z').valueOf();
sats=[{"PERIAPSIS":"546.077","EPOCH":"2022-07-12T19:13:45.798528","TLE_LINE1":"1 48583U 21041AG  22193.80122452  .00019811  00000-0  13438-2 0  9998","OBJECT_TYPE":"PAYLOAD","EPHEMERIS_TYPE":"0","ELEMENT_SET_NO":"999","MEAN_MOTION":"15.06437924","MEAN_ELEMENT_THEORY":"SGP4","FILE":"3512432","OBJECT_NAME":"STARLINK-2237","DECAY_DATE":null,"REV_AT_EPOCH":"6416","APOAPSIS":"548.117","GP_ID":"207998759","INCLINATION":"53.0546","CENTER_NAME":"EARTH","NORAD_CAT_ID":"48583","OBJECT_ID":"2021-041AG","RCS_SIZE":"LARGE","TIME_SYSTEM":"UTC","BSTAR":"0.00134380000000","COUNTRY_CODE":"US","MEAN_ANOMALY":"277.7956","PERIOD":"95.590","ARG_OF_PERICENTER":"82.3200","SITE":"AFETR","MEAN_MOTION_DDOT":"0.0000000000000","REF_FRAME":"TEME","MEAN_MOTION_DOT":"0.00019811","ECCENTRICITY":"0.00014730","RA_OF_ASC_NODE":"18.6563","LAUNCH_DATE":"2021-05-15","CLASSIFICATION_TYPE":"U","SEMIMAJOR_AXIS":"6925.232","TLE_LINE2":"2 48583  53.0546  18.6563 0001473  82.3200 277.7956 15.06437924 64163"},{"MEAN_MOTION_DOT":"0.00013078","ECCENTRICITY":"0.00015200","RA_OF_ASC_NODE":"18.7803","LAUNCH_DATE":"2021-05-15","CLASSIFICATION_TYPE":"U","SEMIMAJOR_AXIS":"6925.255","TLE_LINE2":"2 48584  53.0545  18.7803 0001520  72.0891 288.0263 15.06430519 63704","COUNTRY_CODE":"US","MEAN_ANOMALY":"288.0263","PERIOD":"95.590","SITE":"AFETR","ARG_OF_PERICENTER":"72.0891","MEAN_MOTION_DDOT":"0.0000000000000","REF_FRAME":"TEME","RCS_SIZE":"LARGE","TIME_SYSTEM":"UTC","BSTAR":"0.00089449000000","NORAD_CAT_ID":"48584","OBJECT_ID":"2021-041AH","INCLINATION":"53.0545","CENTER_NAME":"EARTH","DECAY_DATE":null,"REV_AT_EPOCH":"6370","APOAPSIS":"548.173","GP_ID":"207998993","MEAN_ELEMENT_THEORY":"SGP4","OBJECT_NAME":"STARLINK-2238","FILE":"3512432","PERIAPSIS":"546.067","EPOCH":"2022-07-12T18:36:36.111744","TLE_LINE1":"1 48584U 21041AH  22193.77541796  .00013078  00000-0  89449-3 0  9996","EPHEMERIS_TYPE":"0","OBJECT_TYPE":"PAYLOAD","ELEMENT_SET_NO":"999","MEAN_MOTION":"15.06430519"},{"MEAN_MOTION_DDOT":"0.0000000000000","REF_FRAME":"TEME","PERIOD":"95.591","ARG_OF_PERICENTER":"94.9404","SITE":"AFETR","COUNTRY_CODE":"US","MEAN_ANOMALY":"265.1733","CLASSIFICATION_TYPE":"U","SEMIMAJOR_AXIS":"6925.318","TLE_LINE2":"2 48585  53.0557  18.7346 0001299  94.9404 265.1733 15.06410117 63706","LAUNCH_DATE":"2021-05-15","RA_OF_ASC_NODE":"18.7346","MEAN_MOTION_DOT":"0.00002819","ECCENTRICITY":"0.00012990","NORAD_CAT_ID":"48585","OBJECT_ID":"2021-041AJ","BSTAR":"0.00020800000000","TIME_SYSTEM":"UTC","RCS_SIZE":"LARGE","GP_ID":"207998257","APOAPSIS":"548.082","DECAY_DATE":null,"REV_AT_EPOCH":"6370","INCLINATION":"53.0557","CENTER_NAME":"EARTH","MEAN_MOTION":"15.06410117","ELEMENT_SET_NO":"999","EPOCH":"2022-07-12T18:52:30.824832","TLE_LINE1":"1 48585U 21041AJ  22193.78646788  .00002819  00000-0  20800-3 0  9992","OBJECT_TYPE":"PAYLOAD","EPHEMERIS_TYPE":"0","PERIAPSIS":"546.283","MEAN_ELEMENT_THEORY":"SGP4","FILE":"3512432","OBJECT_NAME":"STARLINK-2240"},{"DECAY_DATE":null,"REV_AT_EPOCH":"6370","APOAPSIS":"548.230","GP_ID":"207998507","INCLINATION":"53.0542","CENTER_NAME":"EARTH","PERIAPSIS":"546.093","EPOCH":"2022-07-12T18:41:54.632256","EPHEMERIS_TYPE":"0","TLE_LINE1":"1 48586U 21041AK  22193.77910454  .00006826  00000-0  47647-3 0  9996","OBJECT_TYPE":"PAYLOAD","ELEMENT_SET_NO":"999","MEAN_MOTION":"15.06416915","MEAN_ELEMENT_THEORY":"SGP4","FILE":"3512432","OBJECT_NAME":"STARLINK-2241","COUNTRY_CODE":"US","MEAN_ANOMALY":"275.5576","PERIOD":"95.591","ARG_OF_PERICENTER":"84.5589","SITE":"AFETR","MEAN_MOTION_DDOT":"0.0000000000000","REF_FRAME":"TEME","MEAN_MOTION_DOT":"0.00006826","ECCENTRICITY":"0.00015430","RA_OF_ASC_NODE":"18.7606","LAUNCH_DATE":"2021-05-15","SEMIMAJOR_AXIS":"6925.297","CLASSIFICATION_TYPE":"U","TLE_LINE2":"2 48586  53.0542  18.7606 0001543  84.5589 275.5576 15.06416915 63703","NORAD_CAT_ID":"48586","OBJECT_ID":"2021-041AK","RCS_SIZE":"LARGE","TIME_SYSTEM":"UTC","BSTAR":"0.00047647000000"},{"APOAPSIS":"548.206","REV_AT_EPOCH":"6370","DECAY_DATE":null,"GP_ID":"207999259","INCLINATION":"53.0553","CENTER_NAME":"EARTH","OBJECT_TYPE":"PAYLOAD","TLE_LINE1":"1 48587U 21041AL  22193.78278572  .00004565  00000-0  32508-3 0  9994","EPHEMERIS_TYPE":"0","EPOCH":"2022-07-12T18:47:12.686208","PERIAPSIS":"546.147","MEAN_MOTION":"15.06412061","ELEMENT_SET_NO":"999","OBJECT_NAME":"STARLINK-2242","FILE":"3512432","MEAN_ELEMENT_THEORY":"SGP4","SITE":"AFETR","ARG_OF_PERICENTER":"82.8998","PERIOD":"95.591","MEAN_ANOMALY":"277.2160","COUNTRY_CODE":"US","MEAN_MOTION_DDOT":"0.0000000000000","REF_FRAME":"TEME","RA_OF_ASC_NODE":"18.7436","ECCENTRICITY":"0.00014870","MEAN_MOTION_DOT":"0.00004565","TLE_LINE2":"2 48587  53.0553  18.7436 0001487  82.8998 277.2160 15.06412061 63705","SEMIMAJOR_AXIS":"6925.312","CLASSIFICATION_TYPE":"U","LAUNCH_DATE":"2021-05-15","OBJECT_ID":"2021-041AL","NORAD_CAT_ID":"48587","RCS_SIZE":"LARGE","BSTAR":"0.00032508000000","TIME_SYSTEM":"UTC"},{"NORAD_CAT_ID":"48588","OBJECT_ID":"2021-041AM","BSTAR":"0.00018994000000","TIME_SYSTEM":"UTC","RCS_SIZE":"LARGE","MEAN_MOTION_DDOT":"0.0000000000000","REF_FRAME":"TEME","PERIOD":"95.592","ARG_OF_PERICENTER":"86.4906","SITE":"AFETR","COUNTRY_CODE":"US","MEAN_ANOMALY":"273.6229","CLASSIFICATION_TYPE":"U","SEMIMAJOR_AXIS":"6925.332","TLE_LINE2":"2 48588  53.0548   8.8374 0001275  86.4906 273.6229 15.06405512 63849","LAUNCH_DATE":"2021-05-15","RA_OF_ASC_NODE":"8.8374","MEAN_MOTION_DOT":"0.00002549","ECCENTRICITY":"0.00012750","MEAN_MOTION":"15.06405512","ELEMENT_SET_NO":"999","EPOCH":"2022-07-12T18:16:40.635552","TLE_LINE1":"1 48588U 21041AM  22193.76158143  .00002549  00000-0  18994-3 0  9997","EPHEMERIS_TYPE":"0","OBJECT_TYPE":"PAYLOAD","PERIAPSIS":"546.314","MEAN_ELEMENT_THEORY":"SGP4","FILE":"3512432","OBJECT_NAME":"STARLINK-2244","GP_ID":"207999493","APOAPSIS":"548.080","DECAY_DATE":null,"REV_AT_EPOCH":"6384","INCLINATION":"53.0548","CENTER_NAME":"EARTH"},{"MEAN_ELEMENT_THEORY":"SGP4","OBJECT_NAME":"STARLINK-2245","FILE":"3512432","MEAN_MOTION":"15.06438858","ELEMENT_SET_NO":"999","EPOCH":"2022-07-12T21:22:28.196832","TLE_LINE1":"1 48589U 21041AN  22193.89060413  .00019852  00000-0  13465-2 0  9996","OBJECT_TYPE":"PAYLOAD","EPHEMERIS_TYPE":"0","PERIAPSIS":"546.142","INCLINATION":"53.0554","CENTER_NAME":"EARTH","GP_ID":"207997759","APOAPSIS":"548.047","DECAY_DATE":null,"REV_AT_EPOCH":"6386","BSTAR":"0.00134650000000","TIME_SYSTEM":"UTC","RCS_SIZE":"LARGE","NORAD_CAT_ID":"48589","OBJECT_ID":"2021-041AN","CLASSIFICATION_TYPE":"U","SEMIMAJOR_AXIS":"6925.229","TLE_LINE2":"2 48589  53.0554   8.2650 0001375  80.3061 279.8083 15.06438858 63861","LAUNCH_DATE":"2021-05-15","RA_OF_ASC_NODE":"8.2650","MEAN_MOTION_DOT":"0.00019852","ECCENTRICITY":"0.00013750","MEAN_MOTION_DDOT":"0.0000000000000","REF_FRAME":"TEME","PERIOD":"95.590","ARG_OF_PERICENTER":"80.3061","SITE":"AFETR","COUNTRY_CODE":"US","MEAN_ANOMALY":"279.8083"},{"MEAN_ELEMENT_THEORY":"SGP4","FILE":"3512432","OBJECT_NAME":"STARLINK-2248","EPOCH":"2022-07-12T20:59:53.164896","OBJECT_TYPE":"PAYLOAD","TLE_LINE1":"1 48591U 21041AQ  22193.87492089  .00018763  00000-0  12739-2 0  9998","EPHEMERIS_TYPE":"0","PERIAPSIS":"546.107","MEAN_MOTION":"15.06436153","ELEMENT_SET_NO":"999","CENTER_NAME":"EARTH","INCLINATION":"53.0546","APOAPSIS":"548.099","DECAY_DATE":null,"REV_AT_EPOCH":"6476","GP_ID":"207998009","RCS_SIZE":"LARGE","BSTAR":"0.00127390000000","TIME_SYSTEM":"UTC","NORAD_CAT_ID":"48591","OBJECT_ID":"2021-041AQ","RA_OF_ASC_NODE":"8.3362","MEAN_MOTION_DOT":"0.00018763","ECCENTRICITY":"0.00014380","CLASSIFICATION_TYPE":"U","SEMIMAJOR_AXIS":"6925.238","TLE_LINE2":"2 48591  53.0546   8.3362 0001438  81.7973 278.3179 15.06436153 64769","LAUNCH_DATE":"2021-05-15","PERIOD":"95.590","ARG_OF_PERICENTER":"81.7973","SITE":"AFETR","COUNTRY_CODE":"US","MEAN_ANOMALY":"278.3179","MEAN_MOTION_DDOT":"0.0000000000000","REF_FRAME":"TEME"},{"OBJECT_NAME":"STARLINK-2249","FILE":"3512588","MEAN_ELEMENT_THEORY":"SGP4","ELEMENT_SET_NO":"999","MEAN_MOTION":"15.06414292","PERIAPSIS":"546.098","OBJECT_TYPE":"PAYLOAD","TLE_LINE1":"1 48592U 21041AR  22193.95139216  .00004395  00000-0  31362-3 0  9998","EPHEMERIS_TYPE":"0","EPOCH":"2022-07-12T22:50:00.282624","CENTER_NAME":"EARTH","INCLINATION":"53.0559","GP_ID":"208005574","REV_AT_EPOCH":"6403","DECAY_DATE":null,"APOAPSIS":"548.241","TIME_SYSTEM":"UTC","BSTAR":"0.00031362000000","RCS_SIZE":"LARGE","OBJECT_ID":"2021-041AR","NORAD_CAT_ID":"48592","LAUNCH_DATE":"2021-05-15","TLE_LINE2":"2 48592  53.0559  18.0132 0001547  77.1350 282.9812 15.06414292 64031","CLASSIFICATION_TYPE":"U","SEMIMAJOR_AXIS":"6925.305","ECCENTRICITY":"0.00015470","MEAN_MOTION_DOT":"0.00004395","RA_OF_ASC_NODE":"18.0132","MEAN_MOTION_DDOT":"0.0000000000000","REF_FRAME":"TEME","MEAN_ANOMALY":"282.9812","COUNTRY_CODE":"US","SITE":"AFETR","ARG_OF_PERICENTER":"77.1350","PERIOD":"95.591"},{"OBJECT_ID":"2021-041AS","NORAD_CAT_ID":"48593","BSTAR":"0.00014661000000","TIME_SYSTEM":"UTC","RCS_SIZE":"LARGE","MEAN_MOTION_DDOT":"0.0000000000000","REF_FRAME":"TEME","SITE":"AFETR","ARG_OF_PERICENTER":"87.5201","PERIOD":"95.592","MEAN_ANOMALY":"272.5960","COUNTRY_CODE":"US","TLE_LINE2":"2 48593  53.0558  17.9702 0001508  87.5201 272.5960 15.06401707 64035","SEMIMAJOR_AXIS":"6925.343","CLASSIFICATION_TYPE":"U","LAUNCH_DATE":"2021-05-15","RA_OF_ASC_NODE":"17.9702","ECCENTRICITY":"0.00015080","MEAN_MOTION_DOT":"0.00001903","MEAN_MOTION":"15.06401707","ELEMENT_SET_NO":"999","EPHEMERIS_TYPE":"0","TLE_LINE1":"1 48593U 21041AS  22193.95602011  .00001903  00000-0  14661-3 0  9992","OBJECT_TYPE":"PAYLOAD","EPOCH":"2022-07-12T22:56:40.137504","PERIAPSIS":"546.164","FILE":"3512588","OBJECT_NAME":"STARLINK-2250","MEAN_ELEMENT_THEORY":"SGP4","GP_ID":"208006067","APOAPSIS":"548.253","REV_AT_EPOCH":"6403","DECAY_DATE":null,"INCLINATION":"53.0558","CENTER_NAME":"EARTH"}];
